[{"OBJECT_NAME":"RS-44 & BREEZE-KM R/B","OBJECT_ID":"2019-096E","EPOCH":"2026-03-05T21:15:16.428384","MEAN_MOTION":12.79747357,"ECCENTRICITY":0.02180871,"INCLINATION":82.5195,"RA_OF_ASC_NODE":48.3426,"ARG_OF_PERICENTER":26.1965,"MEAN_ANOMALY":334.9976,"EPHEMERIS_TYPE":0,"CLASSIFICATION_TYPE":"U","NORAD_CAT_ID":44909,"ELEMENT_SET_NO":999,"REV_AT_EPOCH":28913,"BSTAR":-4.0098171e-5,"MEAN_MOTION_DOT":2.0e-8,"MEAN_MOTION_DDOT":0},{"OBJECT_NAME":"JILIN-1 KUANFU 01","OBJECT_ID":"2020-003A","EPOCH":"2026-03-06T06:26:25.632672","MEAN_MOTION":15.1004594,"ECCENTRICITY":0.00083563,"INCLINATION":97.5107,"RA_OF_ASC_NODE":141.2479,"ARG_OF_PERICENTER":300.2108,"MEAN_ANOMALY":59.8294,"EPHEMERIS_TYPE":0,"CLASSIFICATION_TYPE":"U","NORAD_CAT_ID":45016,"ELEMENT_SET_NO":999,"REV_AT_EPOCH":33979,"BSTAR":0.00028591836,"MEAN_MOTION_DOT":4.591e-5,"MEAN_MOTION_DDOT":0},{"OBJECT_NAME":"XINGYUN-2 01","OBJECT_ID":"2020-028A","EPOCH":"2026-03-06T06:28:47.834112","MEAN_MOTION":15.11293071,"ECCENTRICITY":0.00086618,"INCLINATION":97.4834,"RA_OF_ASC_NODE":59.7689,"ARG_OF_PERICENTER":188.101,"MEAN_ANOMALY":172.0082,"EPHEMERIS_TYPE":0,"CLASSIFICATION_TYPE":"U","NORAD_CAT_ID":45602,"ELEMENT_SET_NO":999,"REV_AT_EPOCH":31929,"BSTAR":0.00033489074,"MEAN_MOTION_DOT":5.58e-5,"MEAN_MOTION_DDOT":0},{"OBJECT_NAME":"XINGYUN-2 02","OBJECT_ID":"2020-028B","EPOCH":"2026-03-06T07:08:19.807008","MEAN_MOTION":15.11060826,"ECCENTRICITY":0.00093934,"INCLINATION":97.5103,"RA_OF_ASC_NODE":73.1184,"ARG_OF_PERICENTER":266.0508,"MEAN_ANOMALY":93.9648,"EPHEMERIS_TYPE":0,"CLASSIFICATION_TYPE":"U","NORAD_CAT_ID":45603,"ELEMENT_SET_NO":999,"REV_AT_EPOCH":31929,"BSTAR":0.00028949199,"MEAN_MOTION_DOT":4.784e-5,"MEAN_MOTION_DDOT":0},{"OBJECT_NAME":"HAIYANG-1D","OBJECT_ID":"2020-036A","EPOCH":"2026-03-06T06:40:31.753920","MEAN_MOTION":14.34201988,"ECCENTRICITY":0.0003666,"INCLINATION":98.4472,"RA_OF_ASC_NODE":9.2434,"ARG_OF_PERICENTER":91.7481,"MEAN_ANOMALY":268.4124,"EPHEMERIS_TYPE":0,"CLASSIFICATION_TYPE":"U","NORAD_CAT_ID":45721,"ELEMENT_SET_NO":999,"REV_AT_EPOCH":30022,"BSTAR":0.00019035216,"MEAN_MOTION_DOT":4.91e-6,"MEAN_MOTION_DDOT":0},{"OBJECT_NAME":"M2 PATHFINDER","OBJECT_ID":"2020-037E","EPOCH":"2026-03-06T06:52:38.312256","MEAN_MOTION":15.04146831,"ECCENTRICITY":0.0012371,"INCLINATION":97.8145,"RA_OF_ASC_NODE":255.3711,"ARG_OF_PERICENTER":137.5155,"MEAN_ANOMALY":222.703,"EPHEMERIS_TYPE":0,"CLASSIFICATION_TYPE":"U","NORAD_CAT_ID":45727,"ELEMENT_SET_NO":999,"REV_AT_EPOCH":31002,"BSTAR":0.00029407028,"MEAN_MOTION_DOT":4.022e-5,"MEAN_MOTION_DDOT":0},{"OBJECT_NAME":"GAOFEN DUOMO (GFDM)","OBJECT_ID":"2020-042A","EPOCH":"2026-03-06T06:58:24.791808","MEAN_MOTION":14.76833637,"ECCENTRICITY":0.0012327,"INCLINATION":97.7875,"RA_OF_ASC_NODE":128.8634,"ARG_OF_PERICENTER":49.2278,"MEAN_ANOMALY":311,"EPHEMERIS_TYPE":0,"CLASSIFICATION_TYPE":"U","NORAD_CAT_ID":45856,"ELEMENT_SET_NO":999,"REV_AT_EPOCH":30582,"BSTAR":0.00020607339,"MEAN_MOTION_DOT":1.399e-5,"MEAN_MOTION_DDOT":0},{"OBJECT_NAME":"ZIYUAN 3-03 (ZY 3-03)","OBJECT_ID":"2020-051A","EPOCH":"2026-03-06T07:38:04.458624","MEAN_MOTION":15.21324808,"ECCENTRICITY":0.00048584,"INCLINATION":97.2938,"RA_OF_ASC_NODE":136.3164,"ARG_OF_PERICENTER":329.6639,"MEAN_ANOMALY":30.4316,"EPHEMERIS_TYPE":0,"CLASSIFICATION_TYPE":"U","NORAD_CAT_ID":45939,"ELEMENT_SET_NO":999,"REV_AT_EPOCH":31170,"BSTAR":0.00025901919,"MEAN_MOTION_DOT":5.733e-5,"MEAN_MOTION_DDOT":0},{"OBJECT_NAME":"TYVAK-0172","OBJECT_ID":"2020-059C","EPOCH":"2026-03-06T04:23:49.737984","MEAN_MOTION":15.68765325,"ECCENTRICITY":0.00036401,"INCLINATION":97.7227,"RA_OF_ASC_NODE":307.2601,"ARG_OF_PERICENTER":62.3356,"MEAN_ANOMALY":297.8273,"EPHEMERIS_TYPE":0,"CLASSIFICATION_TYPE":"U","NORAD_CAT_ID":46267,"ELEMENT_SET_NO":999,"REV_AT_EPOCH":30257,"BSTAR":0.0023823681,"MEAN_MOTION_DOT":0.0028051,"MEAN_MOTION_DDOT":0},{"OBJECT_NAME":"ION-MK01","OBJECT_ID":"2020-061C","EPOCH":"2026-03-06T04:51:53.698176","MEAN_MOTION":15.86197237,"ECCENTRICITY":0.0001937,"INCLINATION":97.1985,"RA_OF_ASC_NODE":143.906,"ARG_OF_PERICENTER":240.5599,"MEAN_ANOMALY":119.5479,"EPHEMERIS_TYPE":0,"CLASSIFICATION_TYPE":"U","NORAD_CAT_ID":46274,"ELEMENT_SET_NO":999,"REV_AT_EPOCH":30709,"BSTAR":0.00074150194,"MEAN_MOTION_DOT":0.00186586,"MEAN_MOTION_DDOT":0},{"OBJECT_NAME":"NEMO-HD","OBJECT_ID":"2020-061F","EPOCH":"2026-03-06T05:54:53.483904","MEAN_MOTION":15.4240609,"ECCENTRICITY":0.00025135,"INCLINATION":97.2047,"RA_OF_ASC_NODE":128.3339,"ARG_OF_PERICENTER":82.6057,"MEAN_ANOMALY":277.5477,"EPHEMERIS_TYPE":0,"CLASSIFICATION_TYPE":"U","NORAD_CAT_ID":46277,"ELEMENT_SET_NO":999,"REV_AT_EPOCH":30610,"BSTAR":0.00026480511,"MEAN_MOTION_DOT":0.00011361,"MEAN_MOTION_DDOT":0},{"OBJECT_NAME":"3CAT-5A","OBJECT_ID":"2020-061W","EPOCH":"2026-03-06T03:52:10.035264","MEAN_MOTION":15.42719486,"ECCENTRICITY":0.00032245,"INCLINATION":97.253,"RA_OF_ASC_NODE":128.3574,"ARG_OF_PERICENTER":121.9821,"MEAN_ANOMALY":238.174,"EPHEMERIS_TYPE":0,"CLASSIFICATION_TYPE":"U","NORAD_CAT_ID":46292,"ELEMENT_SET_NO":999,"REV_AT_EPOCH":30512,"BSTAR":0.00040541391,"MEAN_MOTION_DOT":0.00017635,"MEAN_MOTION_DDOT":0},{"OBJECT_NAME":"3CAT-5B","OBJECT_ID":"2020-061X","EPOCH":"2026-03-06T03:54:21.144672","MEAN_MOTION":15.43829219,"ECCENTRICITY":0.00035257,"INCLINATION":97.2535,"RA_OF_ASC_NODE":129.1533,"ARG_OF_PERICENTER":123.7461,"MEAN_ANOMALY":236.4124,"EPHEMERIS_TYPE":0,"CLASSIFICATION_TYPE":"U","NORAD_CAT_ID":46293,"ELEMENT_SET_NO":999,"REV_AT_EPOCH":30514,"BSTAR":0.00042522316,"MEAN_MOTION_DOT":0.00019209,"MEAN_MOTION_DDOT":0},{"OBJECT_NAME":"NAPA-1","OBJECT_ID":"2020-061BA","EPOCH":"2026-03-06T06:45:50.157792","MEAN_MOTION":15.56605554,"ECCENTRICITY":0.00011203,"INCLINATION":97.259,"RA_OF_ASC_NODE":136.9427,"ARG_OF_PERICENTER":116.6754,"MEAN_ANOMALY":243.4616,"EPHEMERIS_TYPE":0,"CLASSIFICATION_TYPE":"U","NORAD_CAT_ID":46320,"ELEMENT_SET_NO":999,"REV_AT_EPOCH":30567,"BSTAR":0.00066689947,"MEAN_MOTION_DOT":0.00047532,"MEAN_MOTION_DDOT":0},{"OBJECT_NAME":"JILIN-1 GAOFEN 3B","OBJECT_ID":"2020-065A","EPOCH":"2026-03-06T02:18:22.624416","MEAN_MOTION":15.78392714,"ECCENTRICITY":0.00036326,"INCLINATION":97.2373,"RA_OF_ASC_NODE":122.472,"ARG_OF_PERICENTER":151.1804,"MEAN_ANOMALY":208.9664,"EPHEMERIS_TYPE":0,"CLASSIFICATION_TYPE":"U","NORAD_CAT_ID":46454,"ELEMENT_SET_NO":999,"REV_AT_EPOCH":30415,"BSTAR":0.00088836921,"MEAN_MOTION_DOT":0.001552,"MEAN_MOTION_DDOT":0},{"OBJECT_NAME":"JILIN-1 GAOFEN 3E","OBJECT_ID":"2020-065D","EPOCH":"2026-03-06T06:52:29.196192","MEAN_MOTION":15.53421966,"ECCENTRICITY":0.00147715,"INCLINATION":97.2432,"RA_OF_ASC_NODE":116.2314,"ARG_OF_PERICENTER":176.1397,"MEAN_ANOMALY":183.9973,"EPHEMERIS_TYPE":0,"CLASSIFICATION_TYPE":"U","NORAD_CAT_ID":46457,"ELEMENT_SET_NO":999,"REV_AT_EPOCH":30373,"BSTAR":0.00068079169,"MEAN_MOTION_DOT":0.00043367,"MEAN_MOTION_DDOT":0}]
