RS-44 & BREEZE-KM R/B   
1 44909U 19096E   26064.88560681  .00000002  00000+0 -40098-4 0  9998
2 44909  82.5195  48.3426 0218087  26.1965 334.9976 12.79747357289136
JILIN-1 KUANFU 01       
1 45016U 20003A   26065.26835223  .00004591  00000+0  28592-3 0  9998
2 45016  97.5107 141.2479 0008356 300.2108  59.8294 15.10045940339798
XINGYUN-2 01            
1 45602U 20028A   26065.26999808  .00005580  00000+0  33489-3 0  9996
2 45602  97.4834  59.7689 0008661 188.1010 172.0082 15.11293071319292
XINGYUN-2 02            
1 45603U 20028B   26065.29745147  .00004784  00000+0  28949-3 0  9995
2 45603  97.5103  73.1184 0009393 266.0508  93.9648 15.11060826319293
HAIYANG-1D              
1 45721U 20036A   26065.27814530  .00000491  00000+0  19035-3 0  9993
2 45721  98.4472   9.2434 0003666  91.7481 268.4124 14.34201988300222
M2 PATHFINDER           
1 45727U 20037E   26065.28655454  .00004022  00000+0  29407-3 0  9997
2 45727  97.8145 255.3711 0012371 137.5155 222.7030 15.04146831310021
GAOFEN DUOMO (GFDM)     
1 45856U 20042A   26065.29056472  .00001399  00000+0  20607-3 0  9999
2 45856  97.7875 128.8634 0012327  49.2278 311.0000 14.76833637305823
ZIYUAN 3-03 (ZY 3-03)   
1 45939U 20051A   26065.31810716  .00005733  00000+0  25902-3 0  9992
2 45939  97.2938 136.3164 0004858 329.6639  30.4316 15.21324808311700
TYVAK-0172              
1 46267U 20059C   26065.18321456  .00280510  00000+0  23824-2 0  9996
2 46267  97.7227 307.2601 0003640  62.3356 297.8273 15.68765325302571
ION-MK01                
1 46274U 20061C   26065.20270484  .00186586  00000+0  74150-3 0  9991
2 46274  97.1985 143.9060 0001937 240.5599 119.5479 15.86197237307095
NEMO-HD                 
1 46277U 20061F   26065.24645236  .00011361  00000+0  26481-3 0  9991
2 46277  97.2047 128.3339 0002513  82.6057 277.5477 15.42406090306105
3CAT-5A                 
1 46292U 20061W   26065.16122726  .00017635  00000+0  40541-3 0  9996
2 46292  97.2530 128.3574 0003224 121.9821 238.1740 15.42719486305129
3CAT-5B                 
1 46293U 20061X   26065.16274473  .00019209  00000+0  42522-3 0  9994
2 46293  97.2535 129.1533 0003525 123.7461 236.4124 15.43829219305149
NAPA-1                  
1 46320U 20061BA  26065.28183053  .00047532  00000+0  66690-3 0  9993
2 46320  97.2590 136.9427 0001120 116.6754 243.4616 15.56605554305674
JILIN-1 GAOFEN 3B       
1 46454U 20065A   26065.09609519  .00155200  00000+0  88837-3 0  9993
2 46454  97.2373 122.4720 0003632 151.1804 208.9664 15.78392714304153
JILIN-1 GAOFEN 3E       
1 46457U 20065D   26065.28644903  .00043367  00000+0  68079-3 0  9999
2 46457  97.2432 116.2314 0014771 176.1397 183.9973 15.53421966303735
